SL-16 R/B               
1 22566U 93016B   26012.94476433 -.00000236  00000+0 -96845-4 0  9999
2 22566  71.0088 332.2631 0008587  37.1516 323.0200 14.15294097694289
COSMOS 2242             
1 22626U 93024A   26012.93496622  .00001902  00000+0  16564-3 0  9994
2 22626  82.5207 320.0265 0017657 128.5099 231.7710 14.96267614772050
SL-16 R/B               
1 22803U 93059B   26012.71756492  .00000204  00000+0  12455-3 0  9998
2 22803  70.9907 129.1633 0019279 292.5335  67.3748 14.17219811671601
ARIANE 40 R/B           
1 22830U 93061H   26012.90340103  .00000168  00000+0  77550-4 0  9997
2 22830  98.5029  82.8597 0011830  90.3481 269.9059 14.32824731686114
COSMOS 2278             
1 23087U 94023A   26013.00850996  .00000242  00000+0  15115-3 0  9990
2 23087  71.0551 291.5918 0006805 121.4220 238.7569 14.14363240636932
SL-16 R/B               
1 23088U 94023B   26012.86817792  .00000297  00000+0  17782-3 0  9993
2 23088  70.9985 188.1151 0003143 342.3879  17.7134 14.15004561638190
SL-16 R/B               
1 23343U 94074B   26012.87812996  .00000435  00000+0  64985-4 0  9997
2 23343  97.7175  45.9406 0007680  51.4439 121.6413 14.79331689678996
SL-16 R/B               
1 23405U 94077B   26012.65958227  .00000295  00000+0  17536-3 0  9996
2 23405  70.9834 110.3678 0004791 258.9497 101.1087 14.15553628608303
ARIANE 40+ R/B          
1 23561U 95021B   26012.96329469  .00000232  00000+0  88137-4 0  9990
2 23561  98.4606  85.1694 0005834 315.1837 218.9780 14.39723244611229
SL-16 R/B               
1 23705U 95058B   26012.94646682  .00000056  00000+0  53170-4 0  9990
2 23705  71.0229 297.2865 0013756 213.7349 146.2900 14.15489962559965
SL-16 R/B               
1 24298U 96051B   26012.93362339 -.00000001  00000+0  26166-4 0  9991
2 24298  70.7596 293.2564 0019061 222.9449 137.0184 14.12400612513779
ORBVIEW 2 (SEASTAR)     
1 24883U 97037A   26012.93411828  .00000226  00000+0  94935-4 0  9991
2 24883  98.8478 175.7984 0001727 200.3795 159.7321 14.35444220500478
