CCSDS_OMM_VERS = 2.0
CREATION_DATE  = 
ORIGINATOR     = 

OBJECT_NAME    = SL-16 R/B
OBJECT_ID      = 1993-016B
CENTER_NAME    = EARTH
REF_FRAME      = TEME
TIME_SYSTEM    = UTC
MEAN_ELEMENT_THEORY = SGP/SGP4

EPOCH          = 2026-01-12T22:40:27.638112
MEAN_MOTION    = 14.15294097
ECCENTRICITY   = .00085879
INCLINATION    = 71.0088
RA_OF_ASC_NODE = 332.2631
ARG_OF_PERICENTER = 37.1516
MEAN_ANOMALY   = 323.0200

EPHEMERIS_TYPE = 0
CLASSIFICATION_TYPE = U
NORAD_CAT_ID   = 22566
ELEMENT_SET_NO = 999
REV_AT_EPOCH   = 69428
BSTAR          = -.96845329E-4
MEAN_MOTION_DOT = -.236E-5
MEAN_MOTION_DDOT = 0

CCSDS_OMM_VERS = 2.0
CREATION_DATE  = 
ORIGINATOR     = 

OBJECT_NAME    = COSMOS 2242
OBJECT_ID      = 1993-024A
CENTER_NAME    = EARTH
REF_FRAME      = TEME
TIME_SYSTEM    = UTC
MEAN_ELEMENT_THEORY = SGP/SGP4

EPOCH          = 2026-01-12T22:26:21.081408
MEAN_MOTION    = 14.96267614
ECCENTRICITY   = .00176574
INCLINATION    = 82.5207
RA_OF_ASC_NODE = 320.0265
ARG_OF_PERICENTER = 128.5099
MEAN_ANOMALY   = 231.7710

EPHEMERIS_TYPE = 0
CLASSIFICATION_TYPE = U
NORAD_CAT_ID   = 22626
ELEMENT_SET_NO = 999
REV_AT_EPOCH   = 77205
BSTAR          = .16563834E-3
MEAN_MOTION_DOT = .1902E-4
MEAN_MOTION_DDOT = 0

CCSDS_OMM_VERS = 2.0
CREATION_DATE  = 
ORIGINATOR     = 

OBJECT_NAME    = SL-16 R/B
OBJECT_ID      = 1993-059B
CENTER_NAME    = EARTH
REF_FRAME      = TEME
TIME_SYSTEM    = UTC
MEAN_ELEMENT_THEORY = SGP/SGP4

EPOCH          = 2026-01-12T17:13:17.609088
MEAN_MOTION    = 14.17219811
ECCENTRICITY   = .00192798
INCLINATION    = 70.9907
RA_OF_ASC_NODE = 129.1633
ARG_OF_PERICENTER = 292.5335
MEAN_ANOMALY   = 67.3748

EPHEMERIS_TYPE = 0
CLASSIFICATION_TYPE = U
NORAD_CAT_ID   = 22803
ELEMENT_SET_NO = 999
REV_AT_EPOCH   = 67160
BSTAR          = .12455286E-3
MEAN_MOTION_DOT = .204E-5
MEAN_MOTION_DDOT = 0

CCSDS_OMM_VERS = 2.0
CREATION_DATE  = 
ORIGINATOR     = 

OBJECT_NAME    = ARIANE 40 R/B
OBJECT_ID      = 1993-061H
CENTER_NAME    = EARTH
REF_FRAME      = TEME
TIME_SYSTEM    = UTC
MEAN_ELEMENT_THEORY = SGP/SGP4

EPOCH          = 2026-01-12T21:40:53.848992
MEAN_MOTION    = 14.32824731
ECCENTRICITY   = .001183
INCLINATION    = 98.5029
RA_OF_ASC_NODE = 82.8597
ARG_OF_PERICENTER = 90.3481
MEAN_ANOMALY   = 269.9059

EPHEMERIS_TYPE = 0
CLASSIFICATION_TYPE = U
NORAD_CAT_ID   = 22830
ELEMENT_SET_NO = 999
REV_AT_EPOCH   = 68611
BSTAR          = .77549928E-4
MEAN_MOTION_DOT = .168E-5
MEAN_MOTION_DDOT = 0

CCSDS_OMM_VERS = 2.0
CREATION_DATE  = 
ORIGINATOR     = 

OBJECT_NAME    = COSMOS 2278
OBJECT_ID      = 1994-023A
CENTER_NAME    = EARTH
REF_FRAME      = TEME
TIME_SYSTEM    = UTC
MEAN_ELEMENT_THEORY = SGP/SGP4

EPOCH          = 2026-01-13T00:12:15.260544
MEAN_MOTION    = 14.14363240
ECCENTRICITY   = .00068052
INCLINATION    = 71.0551
RA_OF_ASC_NODE = 291.5918
ARG_OF_PERICENTER = 121.4220
MEAN_ANOMALY   = 238.7569

EPHEMERIS_TYPE = 0
CLASSIFICATION_TYPE = U
NORAD_CAT_ID   = 23087
ELEMENT_SET_NO = 999
REV_AT_EPOCH   = 63693
BSTAR          = .15114531E-3
MEAN_MOTION_DOT = .242E-5
MEAN_MOTION_DDOT = 0

CCSDS_OMM_VERS = 2.0
CREATION_DATE  = 
ORIGINATOR     = 

OBJECT_NAME    = SL-16 R/B
OBJECT_ID      = 1994-023B
CENTER_NAME    = EARTH
REF_FRAME      = TEME
TIME_SYSTEM    = UTC
MEAN_ELEMENT_THEORY = SGP/SGP4

EPOCH          = 2026-01-12T20:50:10.572288
MEAN_MOTION    = 14.15004561
ECCENTRICITY   = .00031438
INCLINATION    = 70.9985
RA_OF_ASC_NODE = 188.1151
ARG_OF_PERICENTER = 342.3879
MEAN_ANOMALY   = 17.7134

EPHEMERIS_TYPE = 0
CLASSIFICATION_TYPE = U
NORAD_CAT_ID   = 23088
ELEMENT_SET_NO = 999
REV_AT_EPOCH   = 63819
BSTAR          = .17781711E-3
MEAN_MOTION_DOT = .297E-5
MEAN_MOTION_DDOT = 0

CCSDS_OMM_VERS = 2.0
CREATION_DATE  = 
ORIGINATOR     = 

OBJECT_NAME    = SL-16 R/B
OBJECT_ID      = 1994-074B
CENTER_NAME    = EARTH
REF_FRAME      = TEME
TIME_SYSTEM    = UTC
MEAN_ELEMENT_THEORY = SGP/SGP4

EPOCH          = 2026-01-12T21:04:30.428544
MEAN_MOTION    = 14.79331689
ECCENTRICITY   = .00076802
INCLINATION    = 97.7175
RA_OF_ASC_NODE = 45.9406
ARG_OF_PERICENTER = 51.4439
MEAN_ANOMALY   = 121.6413

EPHEMERIS_TYPE = 0
CLASSIFICATION_TYPE = U
NORAD_CAT_ID   = 23343
ELEMENT_SET_NO = 999
REV_AT_EPOCH   = 67899
BSTAR          = .64984814E-4
MEAN_MOTION_DOT = .435E-5
MEAN_MOTION_DDOT = 0

CCSDS_OMM_VERS = 2.0
CREATION_DATE  = 
ORIGINATOR     = 

OBJECT_NAME    = SL-16 R/B
OBJECT_ID      = 1994-077B
CENTER_NAME    = EARTH
REF_FRAME      = TEME
TIME_SYSTEM    = UTC
MEAN_ELEMENT_THEORY = SGP/SGP4

EPOCH          = 2026-01-12T15:49:47.908128
MEAN_MOTION    = 14.15553628
ECCENTRICITY   = .00047915
INCLINATION    = 70.9834
RA_OF_ASC_NODE = 110.3678
ARG_OF_PERICENTER = 258.9497
MEAN_ANOMALY   = 101.1087

EPHEMERIS_TYPE = 0
CLASSIFICATION_TYPE = U
NORAD_CAT_ID   = 23405
ELEMENT_SET_NO = 999
REV_AT_EPOCH   = 60830
BSTAR          = .17535858E-3
MEAN_MOTION_DOT = .295E-5
MEAN_MOTION_DDOT = 0

CCSDS_OMM_VERS = 2.0
CREATION_DATE  = 
ORIGINATOR     = 

OBJECT_NAME    = ARIANE 40+ R/B
OBJECT_ID      = 1995-021B
CENTER_NAME    = EARTH
REF_FRAME      = TEME
TIME_SYSTEM    = UTC
MEAN_ELEMENT_THEORY = SGP/SGP4

EPOCH          = 2026-01-12T23:07:08.661216
MEAN_MOTION    = 14.39723244
ECCENTRICITY   = .00058348
INCLINATION    = 98.4606
RA_OF_ASC_NODE = 85.1694
ARG_OF_PERICENTER = 315.1837
MEAN_ANOMALY   = 218.9780

EPHEMERIS_TYPE = 0
CLASSIFICATION_TYPE = U
NORAD_CAT_ID   = 23561
ELEMENT_SET_NO = 999
REV_AT_EPOCH   = 61122
BSTAR          = .88136545E-4
MEAN_MOTION_DOT = .232E-5
MEAN_MOTION_DDOT = 0

CCSDS_OMM_VERS = 2.0
CREATION_DATE  = 
ORIGINATOR     = 

OBJECT_NAME    = SL-16 R/B
OBJECT_ID      = 1995-058B
CENTER_NAME    = EARTH
REF_FRAME      = TEME
TIME_SYSTEM    = UTC
MEAN_ELEMENT_THEORY = SGP/SGP4

EPOCH          = 2026-01-12T22:42:54.733248
MEAN_MOTION    = 14.15489962
ECCENTRICITY   = .0013756
INCLINATION    = 71.0229
RA_OF_ASC_NODE = 297.2865
ARG_OF_PERICENTER = 213.7349
MEAN_ANOMALY   = 146.2900

EPHEMERIS_TYPE = 0
CLASSIFICATION_TYPE = U
NORAD_CAT_ID   = 23705
ELEMENT_SET_NO = 999
REV_AT_EPOCH   = 55996
BSTAR          = .53169684E-4
MEAN_MOTION_DOT = .56E-6
MEAN_MOTION_DDOT = 0

CCSDS_OMM_VERS = 2.0
CREATION_DATE  = 
ORIGINATOR     = 

OBJECT_NAME    = SL-16 R/B
OBJECT_ID      = 1996-051B
CENTER_NAME    = EARTH
REF_FRAME      = TEME
TIME_SYSTEM    = UTC
MEAN_ELEMENT_THEORY = SGP/SGP4

EPOCH          = 2026-01-12T22:24:25.060896
MEAN_MOTION    = 14.12400612
ECCENTRICITY   = .00190616
INCLINATION    = 70.7596
RA_OF_ASC_NODE = 293.2564
ARG_OF_PERICENTER = 222.9449
MEAN_ANOMALY   = 137.0184

EPHEMERIS_TYPE = 0
CLASSIFICATION_TYPE = U
NORAD_CAT_ID   = 24298
ELEMENT_SET_NO = 999
REV_AT_EPOCH   = 51377
BSTAR          = .26165614E-4
MEAN_MOTION_DOT = -.1E-7
MEAN_MOTION_DDOT = 0

CCSDS_OMM_VERS = 2.0
CREATION_DATE  = 
ORIGINATOR     = 

OBJECT_NAME    = ORBVIEW 2 (SEASTAR)
OBJECT_ID      = 1997-037A
CENTER_NAME    = EARTH
REF_FRAME      = TEME
TIME_SYSTEM    = UTC
MEAN_ELEMENT_THEORY = SGP/SGP4

EPOCH          = 2026-01-12T22:25:07.819392
MEAN_MOTION    = 14.35444220
ECCENTRICITY   = .00017271
INCLINATION    = 98.8478
RA_OF_ASC_NODE = 175.7984
ARG_OF_PERICENTER = 200.3795
MEAN_ANOMALY   = 159.7321

EPHEMERIS_TYPE = 0
CLASSIFICATION_TYPE = U
NORAD_CAT_ID   = 24883
ELEMENT_SET_NO = 999
REV_AT_EPOCH   = 50047
BSTAR          = .94934833E-4
MEAN_MOTION_DOT = .226E-5
MEAN_MOTION_DDOT = 0

